[{"OBJECT_NAME":"GSAT0221 (PRN E15)","OBJECT_ID":"2018-060A","EPOCH":"2022-08-17T11:21:08.524512","MEAN_MOTION":1.70476003,"ECCENTRICITY":0.0001869,"INCLINATION":57.1967,"RA_OF_ASC_NODE":19.5354,"ARG_OF_PERICENTER":249.2084,"MEAN_ANOMALY":110.7722,"EPHEMERIS_TYPE":0,"CLASSIFICATION_TYPE":"U","NORAD_CAT_ID":43564,"ELEMENT_SET_NO":999,"REV_AT_EPOCH":2530,"BSTAR":0,"MEAN_MOTION_DOT":-9.2e-7,"MEAN_MOTION_DDOT":0},{"OBJECT_NAME":"GSAT0222 (PRN E33)","OBJECT_ID":"2018-060B","EPOCH":"2022-08-19T10:51:48.200544","MEAN_MOTION":1.70476077,"ECCENTRICITY":0.0001287,"INCLINATION":57.1997,"RA_OF_ASC_NODE":19.4823,"ARG_OF_PERICENTER":263.1212,"MEAN_ANOMALY":96.8674,"EPHEMERIS_TYPE":0,"CLASSIFICATION_TYPE":"U","NORAD_CAT_ID":43565,"ELEMENT_SET_NO":999,"REV_AT_EPOCH":2538,"BSTAR":0,"MEAN_MOTION_DOT":-9.0e-7,"MEAN_MOTION_DDOT":0},{"OBJECT_NAME":"GSAT0219 (PRN E36)","OBJECT_ID":"2018-060C","EPOCH":"2022-08-19T02:04:42.395520","MEAN_MOTION":1.70476064,"ECCENTRICITY":9.16e-5,"INCLINATION":57.1983,"RA_OF_ASC_NODE":19.4941,"ARG_OF_PERICENTER":257.9811,"MEAN_ANOMALY":102.0115,"EPHEMERIS_TYPE":0,"CLASSIFICATION_TYPE":"U","NORAD_CAT_ID":43566,"ELEMENT_SET_NO":999,"REV_AT_EPOCH":2535,"BSTAR":0,"MEAN_MOTION_DOT":-9.0e-7,"MEAN_MOTION_DDOT":0},{"OBJECT_NAME":"GSAT0220 (PRN E13)","OBJECT_ID":"2018-060D","EPOCH":"2022-08-19T07:21:44.053632","MEAN_MOTION":1.70476021,"ECCENTRICITY":0.000134,"INCLINATION":57.2002,"RA_OF_ASC_NODE":19.4878,"ARG_OF_PERICENTER":244.7141,"MEAN_ANOMALY":115.2751,"EPHEMERIS_TYPE":0,"CLASSIFICATION_TYPE":"U","NORAD_CAT_ID":43567,"ELEMENT_SET_NO":999,"REV_AT_EPOCH":2534,"BSTAR":0,"MEAN_MOTION_DOT":-9.0e-7,"MEAN_MOTION_DDOT":0},{"OBJECT_NAME":"BEIDOU-3 M9 (C23)","OBJECT_ID":"2018-062A","EPOCH":"2022-08-19T09:28:57.580032","MEAN_MOTION":1.86231898,"ECCENTRICITY":0.0006021,"INCLINATION":54.2611,"RA_OF_ASC_NODE":229.9289,"ARG_OF_PERICENTER":271.0829,"MEAN_ANOMALY":73.1223,"EPHEMERIS_TYPE":0,"CLASSIFICATION_TYPE":"U","NORAD_CAT_ID":43581,"ELEMENT_SET_NO":999,"REV_AT_EPOCH":2759,"BSTAR":0,"MEAN_MOTION_DOT":7.3e-7,"MEAN_MOTION_DDOT":0},{"OBJECT_NAME":"BEIDOU-3 M10 (C24)","OBJECT_ID":"2018-062B","EPOCH":"2022-08-19T12:50:06.048672","MEAN_MOTION":1.86232254,"ECCENTRICITY":0.0004816,"INCLINATION":54.2607,"RA_OF_ASC_NODE":229.9142,"ARG_OF_PERICENTER":335.9099,"MEAN_ANOMALY":193.7858,"EPHEMERIS_TYPE":0,"CLASSIFICATION_TYPE":"U","NORAD_CAT_ID":43582,"ELEMENT_SET_NO":999,"REV_AT_EPOCH":2760,"BSTAR":0,"MEAN_MOTION_DOT":7.4e-7,"MEAN_MOTION_DDOT":0},{"OBJECT_NAME":"BEIDOU-3 M11 (C25)","OBJECT_ID":"2018-067A","EPOCH":"2022-08-19T11:36:47.150784","MEAN_MOTION":1.86231617,"ECCENTRICITY":0.0006644,"INCLINATION":54.3436,"RA_OF_ASC_NODE":228.5361,"ARG_OF_PERICENTER":0.1491,"MEAN_ANOMALY":176.7041,"EPHEMERIS_TYPE":0,"CLASSIFICATION_TYPE":"U","NORAD_CAT_ID":43602,"ELEMENT_SET_NO":999,"REV_AT_EPOCH":2709,"BSTAR":0,"MEAN_MOTION_DOT":7.4e-7,"MEAN_MOTION_DDOT":0},{"OBJECT_NAME":"BEIDOU-3 M12 (C26)","OBJECT_ID":"2018-067B","EPOCH":"2022-08-19T10:25:34.276800","MEAN_MOTION":1.86231561,"ECCENTRICITY":0.0004032,"INCLINATION":54.3406,"RA_OF_ASC_NODE":228.5043,"ARG_OF_PERICENTER":340.5171,"MEAN_ANOMALY":73.5414,"EPHEMERIS_TYPE":0,"CLASSIFICATION_TYPE":"U","NORAD_CAT_ID":43603,"ELEMENT_SET_NO":999,"REV_AT_EPOCH":2711,"BSTAR":0,"MEAN_MOTION_DOT":7.4e-7,"MEAN_MOTION_DDOT":0},{"OBJECT_NAME":"BEIDOU-3 M13 (C32)","OBJECT_ID":"2018-072A","EPOCH":"2022-08-19T02:41:33.319680","MEAN_MOTION":1.86231872,"ECCENTRICITY":0.0006115,"INCLINATION":55.5137,"RA_OF_ASC_NODE":109.2507,"ARG_OF_PERICENTER":297.2733,"MEAN_ANOMALY":289.8646,"EPHEMERIS_TYPE":0,"CLASSIFICATION_TYPE":"U","NORAD_CAT_ID":43622,"ELEMENT_SET_NO":999,"REV_AT_EPOCH":2661,"BSTAR":0,"MEAN_MOTION_DOT":-5.7e-7,"MEAN_MOTION_DDOT":0},{"OBJECT_NAME":"BEIDOU-3 M14 (C33)","OBJECT_ID":"2018-072B","EPOCH":"2022-08-19T08:42:16.106688","MEAN_MOTION":1.86231904,"ECCENTRICITY":0.0004349,"INCLINATION":55.5159,"RA_OF_ASC_NODE":109.2336,"ARG_OF_PERICENTER":328.0808,"MEAN_ANOMALY":157.2401,"EPHEMERIS_TYPE":0,"CLASSIFICATION_TYPE":"U","NORAD_CAT_ID":43623,"ELEMENT_SET_NO":999,"REV_AT_EPOCH":2662,"BSTAR":0,"MEAN_MOTION_DOT":-5.8e-7,"MEAN_MOTION_DDOT":0},{"OBJECT_NAME":"BEIDOU-3 M15 (C34)","OBJECT_ID":"2018-078A","EPOCH":"2022-08-19T08:42:05.192640","MEAN_MOTION":1.86232679,"ECCENTRICITY":0.0005527,"INCLINATION":55.1013,"RA_OF_ASC_NODE":348.4394,"ARG_OF_PERICENTER":13.3854,"MEAN_ANOMALY":7.4533,"EPHEMERIS_TYPE":0,"CLASSIFICATION_TYPE":"U","NORAD_CAT_ID":43647,"ELEMENT_SET_NO":999,"REV_AT_EPOCH":2613,"BSTAR":0.0001,"MEAN_MOTION_DOT":-1.21e-6,"MEAN_MOTION_DDOT":0},{"OBJECT_NAME":"BEIDOU-3 M16 (C35)","OBJECT_ID":"2018-078B","EPOCH":"2022-08-19T11:21:35.522784","MEAN_MOTION":1.86232283,"ECCENTRICITY":0.0003797,"INCLINATION":55.0972,"RA_OF_ASC_NODE":348.4409,"ARG_OF_PERICENTER":33.1939,"MEAN_ANOMALY":329.5844,"EPHEMERIS_TYPE":0,"CLASSIFICATION_TYPE":"U","NORAD_CAT_ID":43648,"ELEMENT_SET_NO":999,"REV_AT_EPOCH":2615,"BSTAR":0,"MEAN_MOTION_DOT":-1.22e-6,"MEAN_MOTION_DDOT":0},{"OBJECT_NAME":"BEIDOU-3 G1 (C59)","OBJECT_ID":"2018-085A","EPOCH":"2022-08-19T12:43:21.070272","MEAN_MOTION":1.00272317,"ECCENTRICITY":0.0004482,"INCLINATION":0.9566,"RA_OF_ASC_NODE":156.0296,"ARG_OF_PERICENTER":17.0145,"MEAN_ANOMALY":125.7131,"EPHEMERIS_TYPE":0,"CLASSIFICATION_TYPE":"U","NORAD_CAT_ID":43683,"ELEMENT_SET_NO":999,"REV_AT_EPOCH":1404,"BSTAR":0,"MEAN_MOTION_DOT":-2.84e-6,"MEAN_MOTION_DDOT":0},{"OBJECT_NAME":"COSMOS 2529 (757)","OBJECT_ID":"2018-086A","EPOCH":"2022-08-19T09:11:23.794656","MEAN_MOTION":2.13102141,"ECCENTRICITY":0.0011925,"INCLINATION":64.3571,"RA_OF_ASC_NODE":240.0073,"ARG_OF_PERICENTER":262.8423,"MEAN_ANOMALY":192.431,"EPHEMERIS_TYPE":0,"CLASSIFICATION_TYPE":"U","NORAD_CAT_ID":43687,"ELEMENT_SET_NO":999,"REV_AT_EPOCH":2950,"BSTAR":0,"MEAN_MOTION_DOT":8.1e-7,"MEAN_MOTION_DDOT":0},{"OBJECT_NAME":"BEIDOU-3 M17 (C36)","OBJECT_ID":"2018-093A","EPOCH":"2022-08-19T01:59:38.411808","MEAN_MOTION":1.86232082,"ECCENTRICITY":0.0011241,"INCLINATION":54.3438,"RA_OF_ASC_NODE":229.8291,"ARG_OF_PERICENTER":273.6682,"MEAN_ANOMALY":86.2126,"EPHEMERIS_TYPE":0,"CLASSIFICATION_TYPE":"U","NORAD_CAT_ID":43706,"ELEMENT_SET_NO":999,"REV_AT_EPOCH":2550,"BSTAR":0,"MEAN_MOTION_DOT":7.2e-7,"MEAN_MOTION_DDOT":0},{"OBJECT_NAME":"BEIDOU-3 M18 (C37)","OBJECT_ID":"2018-093B","EPOCH":"2022-08-19T14:27:52.763328","MEAN_MOTION":1.86232215,"ECCENTRICITY":0.0009426,"INCLINATION":54.3432,"RA_OF_ASC_NODE":229.8027,"ARG_OF_PERICENTER":294.4971,"MEAN_ANOMALY":145.0327,"EPHEMERIS_TYPE":0,"CLASSIFICATION_TYPE":"U","NORAD_CAT_ID":43707,"ELEMENT_SET_NO":999,"REV_AT_EPOCH":2550,"BSTAR":0,"MEAN_MOTION_DOT":7.5e-7,"MEAN_MOTION_DDOT":0},{"OBJECT_NAME":"GPS BIII-1  (PRN 04)","OBJECT_ID":"2018-109A","EPOCH":"2022-08-19T05:19:40.729152","MEAN_MOTION":2.00553182,"ECCENTRICITY":0.0019804,"INCLINATION":55.0994,"RA_OF_ASC_NODE":147.4178,"ARG_OF_PERICENTER":191.2315,"MEAN_ANOMALY":334.9619,"EPHEMERIS_TYPE":0,"CLASSIFICATION_TYPE":"U","NORAD_CAT_ID":43873,"ELEMENT_SET_NO":999,"REV_AT_EPOCH":2703,"BSTAR":0,"MEAN_MOTION_DOT":-2.9e-7,"MEAN_MOTION_DDOT":0}]